SAUDISAT 1C (SO-50)     
1 27607U 02058C   26176.17970424  .00000928  00000+0  12668-3 0  9997
2 27607  64.5519 104.2569 0075079 260.9817  98.2786 14.83062534265641
SAUDISAT 2              
1 28371U 04025F   26175.99690177  .00000233  00000+0  63178-4 0  9997
2 28371  98.5508 176.1807 0023442 273.0068  86.8447 14.56687890166889
SAUDISAT 3              
1 31118U 07012B   26174.58288801  .00000185  00000+0  38031-4 0  9996
2 31118  98.1456 124.9877 0014048 202.3766 157.6829 14.71428609 28684
PISAT                   
1 41784U 16059B   26175.97728610  .00000827  00000+0  14821-3 0  9991
2 41784  97.8179 176.0953 0029037 177.6353 182.4996 14.68995329520889
FLYING LAPTOP           
1 42831U 17042G   26176.18432562  .00002482  00000+0  19722-3 0  9994
2 42831  97.4723 331.4110 0019945  96.2531 264.0966 15.01190382487652
SALSAT                  
1 46495U 20068K   26175.99443822  .00007962  00000+0  27767-3 0  9991
2 46495  97.8853 179.5347 0007812 274.8629  85.1718 15.29898993316555
